{
  "type": "FeatureCollection",
  "features": [
    {
      "type": "Feature",
      "properties": {
        "norad_id": 46277,
        "name": "NEMO-HD",
        "group": "resource",
        "lat": 39.10733768128269,
        "lon": -119.9290946675107,
        "alt_km": 441.7993171333774,
        "timestamp": "2025-12-21T03:56:50.512299+00:00",
        "meta_object_name": "NEMO-HD",
        "meta_object_id": "2020-061F",
        "meta_epoch": "2025-12-20T19:32:42.151200",
        "meta_mean_motion": 15.40480446,
        "meta_eccentricity": 0.0001367,
        "meta_inclination": 97.2201,
        "meta_ra_of_asc_node": 53.8101,
        "meta_arg_of_pericenter": 51.6658,
        "meta_mean_anomaly": 308.4711,
        "meta_ephemeris_type": 0,
        "meta_classification_type": "U",
        "meta_norad_cat_id": 46277,
        "meta_element_set_no": 999,
        "meta_rev_at_epoch": 29448,
        "meta_bstar": 0.0001718,
        "meta_mean_motion_dot": 6.88e-05,
        "meta_mean_motion_ddot": 0,
        "tle_line1": "1 46277U 20061F   25354.81437675  .00006880  00000+0  17180-3 0  9996",
        "tle_line2": "2 46277  97.2201  53.8101 0001367  51.6658 308.4711 15.40480446294482"
      },
      "geometry": {
        "type": "Point",
        "coordinates": [
          -119.9290946675107,
          39.10733768128269
        ]
      }
    },
    {
      "type": "Feature",
      "properties": {
        "norad_id": 46984,
        "name": "SENTINEL-6A",
        "group": "resource",
        "lat": 55.719057751755116,
        "lon": -174.47501747471986,
        "alt_km": 1336.9360747719838,
        "timestamp": "2025-12-21T03:56:50.512309+00:00",
        "meta_object_name": "SENTINEL-6A",
        "meta_object_id": "2020-086A",
        "meta_epoch": "2025-12-20T16:22:03.275904",
        "meta_mean_motion": 12.80930831,
        "meta_eccentricity": 0.0007713,
        "meta_inclination": 66.0394,
        "meta_ra_of_asc_node": 145.8116,
        "meta_arg_of_pericenter": 269.3177,
        "meta_mean_anomaly": 90.6954,
        "meta_ephemeris_type": 0,
        "meta_classification_type": "U",
        "meta_norad_cat_id": 46984,
        "meta_element_set_no": 999,
        "meta_rev_at_epoch": 23746,
        "meta_bstar": -3.5494e-05,
        "meta_mean_motion_dot": -6.9e-07,
        "meta_mean_motion_ddot": 0,
        "tle_line1": "1 46984U 20086A   25354.68198236 -.00000069  00000+0 -35494-4 0  9994",
        "tle_line2": "2 46984  66.0394 145.8116 0007713 269.3177  90.6954 12.80930831237460"
      },
      "geometry": {
        "type": "Point",
        "coordinates": [
          -174.47501747471986,
          55.719057751755116
        ]
      }
    },
    {
      "type": "Feature",
      "properties": {
        "norad_id": 48079,
        "name": "GAOFEN-12 02",
        "group": "resource",
        "lat": -52.882597302302976,
        "lon": 158.4404183769456,
        "alt_km": 636.3350985937168,
        "timestamp": "2025-12-21T03:56:50.512317+00:00",
        "meta_object_name": "GAOFEN-12 02",
        "meta_object_id": "2021-026A",
        "meta_epoch": "2025-12-20T22:01:49.502784",
        "meta_mean_motion": 14.80683815,
        "meta_eccentricity": 0.0003602,
        "meta_inclination": 97.9854,
        "meta_ra_of_asc_node": 348.8849,
        "meta_arg_of_pericenter": 84.7451,
        "meta_mean_anomaly": 275.4172,
        "meta_ephemeris_type": 0,
        "meta_classification_type": "U",
        "meta_norad_cat_id": 48079,
        "meta_element_set_no": 999,
        "meta_rev_at_epoch": 25538,
        "meta_bstar": 4.8322e-05,
        "meta_mean_motion_dot": 3.19e-06,
        "meta_mean_motion_ddot": 0,
        "tle_line1": "1 48079U 21026A   25354.91793406  .00000319  00000+0  48322-4 0  9992",
        "tle_line2": "2 48079  97.9854 348.8849 0003602  84.7451 275.4172 14.80683815255381"
      },
      "geometry": {
        "type": "Point",
        "coordinates": [
          158.4404183769456,
          -52.882597302302976
        ]
      }
    },
    {
      "type": "Feature",
      "properties": {
        "norad_id": 48268,
        "name": "PLEIADES NEO 3",
        "group": "resource",
        "lat": -29.31761593109707,
        "lon": 71.95434995636253,
        "alt_km": 630.449336907498,
        "timestamp": "2025-12-21T03:56:50.512326+00:00",
        "meta_object_name": "PLEIADES NEO 3",
        "meta_object_id": "2021-034A",
        "meta_epoch": "2025-12-20T19:58:36.873408",
        "meta_mean_motion": 14.81673238,
        "meta_eccentricity": 0.0001362,
        "meta_inclination": 97.8951,
        "meta_ra_of_asc_node": 67.1575,
        "meta_arg_of_pericenter": 90.9064,
        "meta_mean_anomaly": 269.2305,
        "meta_ephemeris_type": 0,
        "meta_classification_type": "U",
        "meta_norad_cat_id": 48268,
        "meta_element_set_no": 999,
        "meta_rev_at_epoch": 25124,
        "meta_bstar": 5.4673e-05,
        "meta_mean_motion_dot": 3.78e-06,
        "meta_mean_motion_ddot": 0,
        "tle_line1": "1 48268U 21034A   25354.83237122  .00000378  00000+0  54673-4 0  9991",
        "tle_line2": "2 48268  97.8951  67.1575 0001362  90.9064 269.2305 14.81673238251244"
      },
      "geometry": {
        "type": "Point",
        "coordinates": [
          71.95434995636253,
          -29.31761593109707
        ]
      }
    },
    {
      "type": "Feature",
      "properties": {
        "norad_id": 49070,
        "name": "PLEIADES NEO 4",
        "group": "resource",
        "lat": 29.01976482928105,
        "lon": -108.10377196419012,
        "alt_km": 622.2681040972138,
        "timestamp": "2025-12-21T03:56:50.512335+00:00",
        "meta_object_name": "PLEIADES NEO 4",
        "meta_object_id": "2021-073E",
        "meta_epoch": "2025-12-20T17:32:43.596096",
        "meta_mean_motion": 14.81672155,
        "meta_eccentricity": 0.0001318,
        "meta_inclination": 97.8951,
        "meta_ra_of_asc_node": 67.0539,
        "meta_arg_of_pericenter": 90.4145,
        "meta_mean_anomaly": 269.7219,
        "meta_ephemeris_type": 0,
        "meta_classification_type": "U",
        "meta_norad_cat_id": 49070,
        "meta_element_set_no": 999,
        "meta_rev_at_epoch": 23494,
        "meta_bstar": -3.8173e-05,
        "meta_mean_motion_dot": -3.52e-06,
        "meta_mean_motion_ddot": 0,
        "tle_line1": "1 49070U 21073E   25354.73106014 -.00000352  00000+0 -38173-4 0  9991",
        "tle_line2": "2 49070  97.8951  67.0539 0001318  90.4145 269.7219 14.81672155234945"
      },
      "geometry": {
        "type": "Point",
        "coordinates": [
          -108.10377196419012,
          29.01976482928105
        ]
      }
    },
    {
      "type": "Feature",
      "properties": {
        "norad_id": 49260,
        "name": "LANDSAT 9",
        "group": "resource",
        "lat": 36.15273550966193,
        "lon": -110.79313573905127,
        "alt_km": 699.5513125053376,
        "timestamp": "2025-12-21T03:56:50.512344+00:00",
        "meta_object_name": "LANDSAT 9",
        "meta_object_id": "2021-088A",
        "meta_epoch": "2025-12-20T19:03:05.444064",
        "meta_mean_motion": 14.57105481,
        "meta_eccentricity": 0.0001104,
        "meta_inclination": 98.2084,
        "meta_ra_of_asc_node": 62.7878,
        "meta_arg_of_pericenter": 91.462,
        "meta_mean_anomaly": 268.6705,
        "meta_ephemeris_type": 0,
        "meta_classification_type": "U",
        "meta_norad_cat_id": 49260,
        "meta_element_set_no": 999,
        "meta_rev_at_epoch": 22502,
        "meta_bstar": 7.6271e-05,
        "meta_mean_motion_dot": 2.98e-06,
        "meta_mean_motion_ddot": 0,
        "tle_line1": "1 49260U 21088A   25354.79381301  .00000298  00000+0  76271-4 0  9996",
        "tle_line2": "2 49260  98.2084  62.7878 0001104  91.4620 268.6705 14.57105481225021"
      },
      "geometry": {
        "type": "Point",
        "coordinates": [
          -110.79313573905127,
          36.15273550966193
        ]
      }
    },
    {
      "type": "Feature",
      "properties": {
        "norad_id": 51444,
        "name": "CSG-2",
        "group": "resource",
        "lat": -17.69489369331863,
        "lon": -6.172445232198402,
        "alt_km": 627.9782864412227,
        "timestamp": "2025-12-21T03:56:50.512353+00:00",
        "meta_object_name": "CSG-2",
        "meta_object_id": "2022-008A",
        "meta_epoch": "2025-12-20T20:34:37.214688",
        "meta_mean_motion": 14.82150769,
        "meta_eccentricity": 0.0001439,
        "meta_inclination": 97.8797,
        "meta_ra_of_asc_node": 176.0577,
        "meta_arg_of_pericenter": 83.7078,
        "meta_mean_anomaly": 276.4299,
        "meta_ephemeris_type": 0,
        "meta_classification_type": "U",
        "meta_norad_cat_id": 51444,
        "meta_element_set_no": 999,
        "meta_rev_at_epoch": 21017,
        "meta_bstar": 5.1173e-05,
        "meta_mean_motion_dot": 3.55e-06,
        "meta_mean_motion_ddot": 0,
        "tle_line1": "1 51444U 22008A   25354.85737517  .00000355  00000+0  51173-4 0  9995",
        "tle_line2": "2 51444  97.8797 176.0577 0001439  83.7078 276.4299 14.82150769210173"
      },
      "geometry": {
        "type": "Point",
        "coordinates": [
          -6.172445232198402,
          -17.69489369331863
        ]
      }
    }
  ]
}